$$SOE
2460154.500000000, A.D. 2023-Jul-29 00:00:00.0000, -4.878001301486628E+08, -7.534730851764043E+07, -3.055398452218872E+07,
2460161.500000000, A.D. 2023-Aug-05 00:00:00.0000, -4.870097673992838E+08, -8.490009175328046E+07, -3.099720297426319E+07,
2460168.500000000, A.D. 2023-Aug-12 00:00:00.0000, -4.860249253122008E+08, -9.441898162651756E+07, -3.142803709906180E+07,
2460175.500000000, A.D. 2023-Aug-19 00:00:00.0000, -4.848469163239103E+08, -1.039003559589393E+08, -3.184637395411637E+07,
2460182.500000000, A.D. 2023-Aug-26 00:00:00.0000, -4.834771036372306E+08, -1.133406390936428E+08, -3.225210576972128E+07,
2460189.500000000, A.D. 2023-Sep-02 00:00:00.0000, -4.819168998625045E+08, -1.227363018231965E+08, -3.264512986928876E+07,
2460196.500000000, A.D. 2023-Sep-09 00:00:00.0000, -4.801677656902022E+08, -1.320838614028614E+08, -3.302534860212590E+07,
2460203.500000000, A.D. 2023-Sep-16 00:00:00.0000, -4.782312084259689E+08, -1.413798817092679E+08, -3.339266930883340E+07,
2460210.500000000, A.D. 2023-Sep-23 00:00:00.0000, -4.761087799710810E+08, -1.506209732598106E+08, -3.374700433406150E+07,
2460217.500000000, A.D. 2023-Sep-30 00:00:00.0000, -4.738020745869359E+08, -1.598037919039803E+08, -3.408827095808148E+07,
2460224.500000000, A.D. 2023-Oct-07 00:00:00.0000, -4.713127287963108E+08, -1.689250367317237E+08, -3.441639107557981E+07,
2460231.500000000, A.D. 2023-Oct-14 00:00:00.0000, -4.686424223815461E+08, -1.779814505145846E+08, -3.473129098790522E+07,
2460238.500000000, A.D. 2023-Oct-21 00:00:00.0000, -4.657928772515258E+08, -1.869698210785729E+08, -3.503290147391054E+07,
2460245.500000000, A.D. 2023-Oct-28 00:00:00.0000, -4.627658556007972E+08, -1.958869813494769E+08, -3.532115782367805E+07,
2460252.500000000, A.D. 2023-Nov-04 00:00:00.0000, -4.595631586091079E+08, -2.047298088424592E+08, -3.559599978305463E+07,
2460259.500000000, A.D. 2023-Nov-11 00:00:00.0000, -4.561866255027472E+08, -2.134952251979269E+08, -3.585737147413148E+07,
2460266.500000000, A.D. 2023-Nov-18 00:00:00.0000, -4.526381327578437E+08, -2.221801958299795E+08, -3.610522131697105E+07,
2460273.500000000, A.D. 2023-Nov-25 00:00:00.0000, -4.489195933724860E+08, -2.307817296664533E+08, -3.633950195730041E+07,
2460280.500000000, A.D. 2023-Dec-02 00:00:00.0000, -4.450329561789483E+08, -2.392968789931465E+08, -3.656017020353885E+07,
2460287.500000000, A.D. 2023-Dec-09 00:00:00.0000, -4.409802051175284E+08, -2.477227394625072E+08, -3.676718698503630E+07,
2460294.500000000, A.D. 2023-Dec-16 00:00:00.0000, -4.367633581838056E+08, -2.560564502555707E+08, -3.696051735687293E+07,
2460301.500000000, A.D. 2023-Dec-23 00:00:00.0000, -4.323844657002082E+08, -2.642951937108913E+08, -3.714013052707542E+07,
2460308.500000000, A.D. 2023-Dec-30 00:00:00.0000, -4.278456092511836E+08, -2.724361933721797E+08, -3.730599969768041E+07,
2460315.500000000, A.D. 2024-Jan-06 00:00:00.0000, -4.231489030534933E+08, -2.804767128165566E+08, -3.745810175022428E+07,
2460322.500000000, A.D. 2024-Jan-13 00:00:00.0000, -4.182964945888156E+08, -2.884140570716431E+08, -3.759641721469039E+07,
2460329.500000000, A.D. 2024-Jan-20 00:00:00.0000, -4.132905632748405E+08, -2.962455735370971E+08, -3.772093038220051E+07,
2460336.500000000, A.D. 2024-Jan-27 00:00:00.0000, -4.081333192017189E+08, -3.039686517579066E+08, -3.783162932193135E+07,
2460343.500000000, A.D. 2024-Feb-03 00:00:00.0000, -4.028270023595330E+08, -3.115807229984546E+08, -3.792850584042233E+07,
2460350.500000000, A.D. 2024-Feb-10 00:00:00.0000, -3.973738820773512E+08, -3.190792599102162E+08, -3.801155543273136E+07,
2460357.500000000, A.D. 2024-Feb-17 00:00:00.0000, -3.917762565344161E+08, -3.264617762875183E+08, -3.808077723795198E+07,
2460364.500000000, A.D. 2024-Feb-24 00:00:00.0000, -3.860364523077531E+08, -3.337258268986050E+08, -3.813617400163913E+07,
2460371.500000000, A.D. 2024-Mar-02 00:00:00.0000, -3.801568239272919E+08, -3.408690074258267E+08, -3.817775205080853E+07,
2460378.500000000, A.D. 2024-Mar-09 00:00:00.0000, -3.741397532998100E+08, -3.478889545785183E+08, -3.820552129953207E+07,
2460385.500000000, A.D. 2024-Mar-16 00:00:00.0000, -3.679876486060678E+08, -3.547833461816797E+08, -3.821949530528075E+07,
2460392.500000000, A.D. 2024-Mar-23 00:00:00.0000, -3.617029427739117E+08, -3.615499001315640E+08, -3.821969127580738E+07,
2460399.500000000, A.D. 2024-Mar-30 00:00:00.0000, -3.552880937671228E+08, -3.681863722450917E+08, -3.820612982308362E+07,
2460406.500000000, A.D. 2024-Apr-06 00:00:00.0000, -3.487455864326698E+08, -3.746905563715734E+08, -3.817883476300797E+07,
2460413.500000000, A.D. 2024-Apr-13 00:00:00.0000, -3.420779323549346E+08, -3.810602859317015E+08, -3.813783321837573E+07,
2460420.500000000, A.D. 2024-Apr-20 00:00:00.0000, -3.352876686689599E+08, -3.872934342076703E+08, -3.808315571898907E+07,
2460427.500000000, A.D. 2024-Apr-27 00:00:00.0000, -3.283773573489138E+08, -3.933879139455815E+08, -3.801483620543790E+07,
2460434.500000000, A.D. 2024-May-04 00:00:00.0000, -3.213495848825563E+08, -3.993416769732887E+08, -3.793291200188768E+07,
2460441.500000000, A.D. 2024-May-11 00:00:00.0000, -3.142069620920067E+08, -4.051527139355660E+08, -3.783742378788871E+07,
2460448.500000000, A.D. 2024-May-18 00:00:00.0000, -3.069521240176750E+08, -4.108190541253169E+08, -3.772841557480681E+07,
2460455.500000000, A.D. 2024-May-25 00:00:00.0000, -2.995877298397042E+08, -4.163387654183291E+08, -3.760593468953183E+07,
2460462.500000000, A.D. 2024-Jun-01 00:00:00.0000, -2.921164627762048E+08, -4.217099543693857E+08, -3.747003177540138E+07,
2460469.500000000, A.D. 2024-Jun-08 00:00:00.0000, -2.845410297111055E+08, -4.269307664931363E+08, -3.732076083455300E+07,
2460476.500000000, A.D. 2024-Jun-15 00:00:00.0000, -2.768641601514052E+08, -4.319993861851269E+08, -3.715817930353725E+07,
2460483.500000000, A.D. 2024-Jun-22 00:00:00.0000, -2.690886055183372E+08, -4.369140351080948E+08, -3.698234797367284E+07,
2460490.500000000, A.D. 2024-Jun-29 00:00:00.0000, -2.612171408930247E+08, -4.416729708644570E+08, -3.679333071009055E+07,
2460497.500000000, A.D. 2024-Jul-06 00:00:00.0000, -2.532525665707410E+08, -4.462744884270320E+08, -3.659119441392672E+07,
2460504.500000000, A.D. 2024-Jul-13 00:00:00.0000, -2.451977074744253E+08, -4.507169215051740E+08, -3.637600917564109E+07,
2460511.500000000, A.D. 2024-Jul-20 00:00:00.0000, -2.370554124130304E+08, -4.549986426980962E+08, -3.614784834333238E+07,
2460518.500000000, A.D. 2024-Jul-27 00:00:00.0000, -2.288285538400876E+08, -4.591180633947426E+08, -3.590678852418202E+07,
2460525.500000000, A.D. 2024-Aug-03 00:00:00.0000, -2.205200278385581E+08, -4.630736337950550E+08, -3.565290957468954E+07,
2460532.500000000, A.D. 2024-Aug-10 00:00:00.0000, -2.121327541650411E+08, -4.668638430572397E+08, -3.538629459540021E+07,
2460539.500000000, A.D. 2024-Aug-17 00:00:00.0000, -2.036696763049733E+08, -4.704872195497873E+08, -3.510702993293300E+07,
2460546.500000000, A.D. 2024-Aug-24 00:00:00.0000, -1.951337615102633E+08, -4.739423312311372E+08, -3.481520519397724E+07,
2460553.500000000, A.D. 2024-Aug-31 00:00:00.0000, -1.865280007032957E+08, -4.772277862190033E+08, -3.451091328716421E+07,
2460560.500000000, A.D. 2024-Sep-07 00:00:00.0000, -1.778554078815172E+08, -4.803422334232820E+08, -3.419425051623872E+07,
2460567.500000000, A.D. 2024-Sep-14 00:00:00.0000, -1.691190189371307E+08, -4.832843622464846E+08, -3.386531665109262E+07,
2460574.500000000, A.D. 2024-Sep-21 00:00:00.0000, -1.603218919201568E+08, -4.860529009380857E+08, -3.352421475685230E+07,
2460581.500000000, A.D. 2024-Sep-28 00:00:00.0000, -1.514671092308839E+08, -4.886466168290943E+08, -3.317105100004348E+07,
2460588.500000000, A.D. 2024-Oct-05 00:00:00.0000, -1.425577780701140E+08, -4.910643184449257E+08, -3.280593476836345E+07,
2460595.500000000, A.D. 2024-Oct-12 00:00:00.0000, -1.335970295062399E+08, -4.933048565171162E+08, -3.242897882754987E+07,
2460602.500000000, A.D. 2024-Oct-19 00:00:00.0000, -1.245880179086864E+08, -4.953671241654832E+08, -3.204029937698641E+07,
2460609.500000000, A.D. 2024-Oct-26 00:00:00.0000, -1.155339207789752E+08, -4.972500570530632E+08, -3.164001606668583E+07,
2460616.500000000, A.D. 2024-Nov-02 00:00:00.0000, -1.064379387212914E+08, -4.989526336630335E+08, -3.122825201146293E+07,
2460623.500000000, A.D. 2024-Nov-09 00:00:00.0000, -9.730329545522042E+07, -5.004738756773812E+08, -3.080513380947322E+07,
2460630.500000000, A.D. 2024-Nov-16 00:00:00.0000, -8.813323784386863E+07, -5.018128484573153E+08, -3.037079156741267E+07,
2460637.500000000, A.D. 2024-Nov-23 00:00:00.0000, -7.893103588946013E+07, -5.029686616755437E+08, -2.992535894065133E+07,
2460644.500000000, A.D. 2024-Nov-30 00:00:00.0000, -6.969998248713872E+07, -5.039404701432558E+08, -2.946897321072641E+07,
2460651.500000000, A.D. 2024-Dec-07 00:00:00.0000, -6.044339251655510E+07, -5.047274744113050E+08, -2.900177540408581E+07,
2460658.500000000, A.D. 2024-Dec-14 00:00:00.0000, -5.116460195888566E+07, -5.053289199214672E+08, -2.852391028864560E+07,
2460665.500000000, A.D. 2024-Dec-21 00:00:00.0000, -4.186696935658784E+07, -5.057440959478414E+08, -2.803552613662139E+07,
2460672.500000000, A.D. 2024-Dec-28 00:00:00.0000, -3.255387764156732E+07, -5.059723372952226E+08, -2.753677467683280E+07,
2460679.500000000, A.D. 2025-Jan-04 00:00:00.0000, -2.322873373275546E+07, -5.060130263789768E+08, -2.702781128033784E+07,
2460686.500000000, A.D. 2025-Jan-11 00:00:00.0000, -1.389496772310369E+07, -5.058655940274516E+08, -2.650879507643798E+07,
2460693.500000000, A.D. 2025-Jan-18 00:00:00.0000, -4.556032571739964E+06, -5.055295199260284E+08, -2.597988898969027E+07,
2460700.500000000, A.D. 2025-Jan-25 00:00:00.0000, 4.784595943517906E+06, -5.050043331773689E+08, -2.544125975868285E+07,
2460707.500000000, A.D. 2025-Feb-01 00:00:00.0000, 1.412341920422908E+07, -5.042896130078415E+08, -2.489307795606109E+07,
2460714.500000000, A.D. 2025-Feb-08 00:00:00.0000, 2.345691572002282E+07, -5.033849896002270E+08, -2.433551801324537E+07,
$$EOE